NORAD_CAT_ID,OBJECT_NAME,OBJECT_TYPE,EPOCH,MEAN_MOTION,ECCENTRICITY,INCLINATION,RA_OF_ASC_NODE,ARG_OF_PERICENTER,MEAN_ANOMALY,BSTAR,MEAN_MOTION_DOT,MEAN_MOTION_DDOT,TLE_LINE0,TLE_LINE1,TLE_LINE2,SEMIMAJOR_AXIS,PERIOD,APOGEE,PERIGEE,DECAYED
56496.0,STARLINK-5526,PAYLOAD,2024-01-08 21:48:24,14.98326952,0.0002609,70.0005,298.1903,268.5887,91.4973,-3.0411e-05,-4.56e-06,0.0,0 STARLINK-5526,1 56496U 23064BA  24008.90861410 -.00000456  00000-0 -30411-4 0  9998,2 56496  70.0005 298.1903 0002609 268.5887  91.4973 14.98326952 37784,6950.202,96.107,573.881,570.254,0.0
56496.0,STARLINK-5526,PAYLOAD,2024-01-09 04:12:56,14.98326265,0.0002688,70.0006,297.5171,270.1448,89.9403,-3.6622e-05,-5.3e-06,0.0,0 STARLINK-5526,1 56496U 23064BA  24009.17565515 -.00000530  00000-0 -36622-4 0  9998,2 56496  70.0006 297.5171 0002688 270.1448  89.9403 14.98326265 37826,6950.204,96.107,573.938,570.201,0.0
56496.0,STARLINK-5526,PAYLOAD,2024-01-09 18:38:08,14.98335364,0.0002724,69.9993,296.0015,265.0151,95.0697,2.0938e-05,1.57e-06,0.0,0 STARLINK-5526,1 56496U 23064BA  24009.77648631  .00000157  00000-0  20938-4 0  9991,2 56496  69.9993 296.0015 0002724 265.0151  95.0697 14.98335364 38277,6950.176,96.107,573.935,570.148,0.0
56496.0,STARLINK-5526,PAYLOAD,2024-01-09 21:50:24,14.98338826,0.0002671,69.9998,295.6651,266.5069,93.5784,5.6703e-05,5.84e-06,0.0,0 STARLINK-5526,1 56496U 23064BA  24009.91000242  .00000584  00000-0  56703-4 0  9990,2 56496  69.9998 295.6651 0002671 266.5069  93.5784 14.98338826 37936,6950.166,96.106,573.887,570.174,0.0
56496.0,STARLINK-5526,PAYLOAD,2024-01-10 02:38:47,14.98341822,0.0002143,70.001,295.1602,253.5159,106.5765,0.00017325,1.975e-05,0.0,0 STARLINK-5526,1 56496U 23064BA  24010.11027591  .00001975  00000-0  17325-3 0  9991,2 56496  70.0010 295.1602 0002143 253.5159 106.5765 14.98341822 38323,6950.156,96.106,573.511,570.532,0.0
56496.0,STARLINK-5526,PAYLOAD,2024-01-10 04:14:55,14.98352806,0.0002723,69.9994,294.9917,264.4019,95.6829,0.00019008,2.177e-05,0.0,0 STARLINK-5526,1 56496U 23064BA  24010.17702682  .00002177  00000-0  19008-3 0  9993,2 56496  69.9994 294.9917 0002723 264.4019  95.6829 14.98352806 38331,6950.122,96.106,573.88,570.095,0.0
56496.0,STARLINK-5526,PAYLOAD,2024-01-11 02:40:49,14.983261,0.0002823,69.9994,292.6355,265.7998,94.2838,-4.1157e-05,-5.84e-06,0.0,0 STARLINK-5526,1 56496U 23064BA  24011.11168838 -.00000584  00000-0 -41157-4 0  9990,2 56496  69.9994 292.6355 0002823 265.7998  94.2838 14.98326100 38471,6950.205,96.107,574.032,570.108,0.0
56496.0,STARLINK-5526,PAYLOAD,2024-01-11 04:16:57,14.98326653,0.0002853,69.9994,292.4671,267.1623,92.921,-3.578e-05,-5.2e-06,0.0,0 STARLINK-5526,1 56496U 23064BA  24011.17844792 -.00000520  00000-0 -35780-4 0  9991,2 56496  69.9994 292.4671 0002853 267.1623  92.9210 14.98326653 38128,6950.203,96.107,574.051,570.085,0.0
56496.0,STARLINK-5526,PAYLOAD,2024-01-11 20:18:17,14.98354421,0.0002812,69.9993,290.7834,260.7698,99.3143,-2.1849e-05,-3.54e-06,0.0,0 STARLINK-5526,1 56496U 23064BA  24011.84603132 -.00000354  00000-0 -21849-4 0  9992,2 56496  69.9993 290.7834 0002812 260.7698  99.3143 14.98354421 38585,6950.117,96.105,573.937,570.028,0.0
56496.0,STARLINK-5526,PAYLOAD,2024-01-11 21:54:25,14.98354885,0.0002826,69.9994,290.6151,259.3559,100.7282,-1.3033e-05,-2.49e-06,0.0,0 STARLINK-5526,1 56496U 23064BA  24011.91278980 -.00000249  00000-0 -13033-4 0  9998,2 56496  69.9994 290.6151 0002826 259.3559 100.7282 14.98354885 38239,6950.116,96.105,573.945,570.017,0.0
56496.0,STARLINK-5526,PAYLOAD,2024-01-12 04:18:56,14.98360283,0.000277,69.9995,289.9427,267.229,92.8552,5.6337e-05,5.8e-06,0.0,0 STARLINK-5526,1 56496U 23064BA  24012.17982101  .00000580  00000-0  56337-4 0  9994,2 56496  69.9995 289.9427 0002770 267.2290  92.8552 14.98360283 38639,6950.099,96.105,573.889,570.039,0.0
56496.0,STARLINK-5526,PAYLOAD,2024-01-12 20:20:19,14.98318643,0.0003049,69.9991,288.2602,266.3799,93.7012,-3.6072e-05,-5.23e-06,0.0,0 STARLINK-5526,1 56496U 23064BA  24012.84744787 -.00000523  00000-0 -36072-4 0  9997,2 56496  69.9991 288.2602 0003049 266.3799  93.7012 14.98318643 38731,6950.228,96.108,574.212,569.974,0.0
56496.0,STARLINK-5526,PAYLOAD,2024-01-12 21:56:27,14.98317985,0.000294,69.9992,288.0909,270.4389,89.6433,-3.1565e-05,-4.69e-06,0.0,0 STARLINK-5526,1 56496U 23064BA  24012.91420918 -.00000469  00000-0 -31565-4 0  9993,2 56496  69.9992 288.0909 0002940 270.4389  89.6433 14.98317985 38380,6950.23,96.108,574.138,570.052,0.0
56496.0,STARLINK-5526,PAYLOAD,2024-01-13 04:21:00,14.9831724,0.0003015,69.9989,287.4185,266.8828,93.1986,-5.3218e-05,-7.28e-06,0.0,0 STARLINK-5526,1 56496U 23064BA  24013.18125153 -.00000728  00000-0 -53218-4 0  9993,2 56496  69.9989 287.4185 0003015 266.8828  93.1986 14.98317240 38428,6950.232,96.108,574.193,570.002,0.0
56496.0,STARLINK-5526,PAYLOAD,2024-01-14 04:23:00,14.9834383,0.0002924,69.999,284.8921,268.0388,92.0436,-9.685e-05,-1.249e-05,0.0,0 STARLINK-5526,1 56496U 23064BA  24014.18263979 -.00001249  00000-0 -96850-4 0  9991,2 56496  69.9990 284.8921 0002924 268.0388  92.0436 14.98343830 38930,6950.15,96.106,574.047,569.983,0.0
56496.0,STARLINK-5526,PAYLOAD,2024-01-14 18:48:13,14.98319719,0.0002521,69.9998,283.3768,263.2538,96.8334,0.00015891,1.803e-05,0.0,0 STARLINK-5526,1 56496U 23064BA  24014.78348765  .00001803  00000-0  15891-3 0  9993,2 56496  69.9998 283.3768 0002521 263.2538  96.8334 14.98319719 39027,6950.225,96.108,573.842,570.338,0.0
56496.0,STARLINK-5526,PAYLOAD,2024-01-14 20:24:21,14.98320421,0.0002513,69.9998,283.2084,262.41,97.6773,0.0001645,1.87e-05,0.0,0 STARLINK-5526,1 56496U 23064BA  24014.85024745  .00001870  00000-0  16450-3 0  9996,2 56496  69.9998 283.2084 0002513 262.4100  97.6773 14.98320421 38672,6950.223,96.108,573.834,570.341,0.0
56496.0,STARLINK-5526,PAYLOAD,2024-01-15 02:48:53,14.98324221,0.0002456,69.9999,282.5352,262.8871,97.2009,0.0001954,2.239e-05,0.0,0 STARLINK-5526,1 56496U 23064BA  24015.11728564  .00002239  00000-0  19540-3 0  9999,2 56496  69.9999 282.5352 0002456 262.8871  97.2009 14.98324221 38713,6950.211,96.107,573.783,570.369,0.0
56496.0,STARLINK-5526,PAYLOAD,2024-01-15 18:50:14,14.98328982,0.0002319,70.0003,280.8522,254.9591,105.1312,1.2328e-05,5.4e-07,0.0,0 STARLINK-5526,1 56496U 23064BA  24015.78488893  .00000054  00000-0  12328-4 0  9991,2 56496  70.0003 280.8522 0002319 254.9591 105.1312 14.98328982 39176,6950.196,96.107,573.673,570.449,0.0
56496.0,STARLINK-5526,PAYLOAD,2024-01-15 20:26:22,14.98328664,0.0002334,70.0002,280.6838,254.4574,105.6327,7.6844e-06,-1e-08,0.0,0 STARLINK-5526,1 56496U 23064BA  24015.85164919 -.00000001  00000-0  76844-5 0  9996,2 56496  70.0002 280.6838 0002334 254.4574 105.6327 14.98328664 38825,6950.197,96.107,573.684,570.44,0.0
56496.0,STARLINK-5526,PAYLOAD,2024-01-16 04:27:02,14.98327448,0.0002576,70.0004,279.8423,257.6948,102.3923,-1.8805e-05,-3.17e-06,0.0,0 STARLINK-5526,1 56496U 23064BA  24016.18545088 -.00000317  00000-0 -18805-4 0  9996,2 56496  70.0004 279.8423 0002576 257.6948 102.3923 14.98327448 38875,6950.201,96.107,573.856,570.275,0.0
56496.0,STARLINK-5526,PAYLOAD,2024-01-16 18:52:15,14.98330845,0.0002532,70.0001,278.3268,254.1333,105.9547,-1.5802e-05,-2.81e-06,0.0,0 STARLINK-5526,1 56496U 23064BA  24016.78628862 -.00000281  00000-0 -15802-4 0  9998,2 56496  70.0001 278.3268 0002532 254.1333 105.9547 14.98330845 39322,6950.19,96.107,573.815,570.295,0.0
56496.0,STARLINK-5526,PAYLOAD,2024-01-16 22:04:31,14.98330755,0.0002535,70.0001,277.9901,254.4419,105.646,-1.6411e-05,-2.89e-06,0.0,0 STARLINK-5526,1 56496U 23064BA  24016.91980857 -.00000289  00000-0 -16411-4 0  9993,2 56496  70.0001 277.9901 0002535 254.4419 105.6460 14.98330755 38984,6950.191,96.107,573.817,570.294,0.0
56496.0,STARLINK-5526,PAYLOAD,2024-01-17 02:52:55,14.98331752,0.000247,70.0003,277.4858,251.9429,108.1461,4.1537e-06,-4.3e-07,0.0,0 STARLINK-5526,1 56496U 23064BA  24017.12008720 -.00000043  00000-0  41537-5 0  9992,2 56496  70.0003 277.4858 0002470 251.9429 108.1461 14.98331752 39015,6950.187,96.107,573.769,570.336,0.0
56496.0,STARLINK-5526,PAYLOAD,2024-01-17 20:30:24,14.98324235,0.0002492,70.0003,275.6351,247.5149,112.5746,-1.3085e-06,-1.09e-06,0.0,0 STARLINK-5526,1 56496U 23064BA  24017.85445258 -.00000109  00000-0 -13085-5 0  9994,2 56496  70.0003 275.6351 0002492 247.5149 112.5746 14.98324235 39481,6950.211,96.107,573.808,570.344,0.0
56496.0,STARLINK-5526,PAYLOAD,2024-01-17 22:06:32,14.98323683,0.0002503,70.0002,275.4667,247.8493,112.24,-8.9821e-06,-2e-06,0.0,0 STARLINK-5526,1 56496U 23064BA  24017.92121333 -.00000200  00000-0 -89821-5 0  9990,2 56496  70.0002 275.4667 0002503 247.8493 112.2400 14.98323683 39138,6950.212,96.107,573.817,570.338,0.0
56496.0,STARLINK-5526,PAYLOAD,2024-01-18 02:54:57,14.98322705,0.0002545,69.9998,274.9604,254.7371,105.3506,-1.9257e-05,-3.23e-06,0.0,0 STARLINK-5526,1 56496U 23064BA  24018.12149519 -.00000323  00000-0 -19257-4 0  9990,2 56496  69.9998 274.9604 0002545 254.7371 105.3506 14.98322705 39169,6950.215,96.107,573.849,570.312,0.0
56496.0,STARLINK-5526,PAYLOAD,2024-01-18 18:56:17,14.98333736,0.0002699,69.9992,273.2768,264.5286,95.5565,2.5628e-05,2.13e-06,0.0,0 STARLINK-5526,1 56496U 23064BA  24018.78908773  .00000213  00000-0  25628-4 0  9992,2 56496  69.9992 273.2768 0002699 264.5286  95.5565 14.98333736 39622,6950.181,96.107,573.922,570.17,0.0
56496.0,STARLINK-5526,PAYLOAD,2024-01-18 22:08:33,14.98333741,0.000271,69.9993,272.9394,264.639,95.446,2.3921e-05,1.92e-06,0.0,0 STARLINK-5526,1 56496U 23064BA  24018.92260743  .00000192  00000-0  23921-4 0  9996,2 56496  69.9993 272.9394 0002710 264.6390  95.4460 14.98333741 39286,6950.181,96.107,573.93,570.163,0.0
56496.0,STARLINK-5526,PAYLOAD,2024-01-19 02:56:57,14.98336311,0.0002681,69.9995,272.4354,264.0378,96.0476,5.2621e-05,5.35e-06,0.0,0 STARLINK-5526,1 56496U 23064BA  24019.12288449  .00000535  00000-0  52621-4 0  9992,2 56496  69.9995 272.4354 0002681 264.0378  96.0476 14.98336311 39310,6950.173,96.107,573.902,570.175,0.0
